[{"OBJECT_NAME":"ONEWEB-0517","OBJECT_ID":"2022-138Y","EPOCH":"2026-03-09T17:32:26.321280","MEAN_MOTION":13.19725911,"ECCENTRICITY":0.00014399,"INCLINATION":87.9233,"RA_OF_ASC_NODE":324.7811,"ARG_OF_PERICENTER":75.5282,"MEAN_ANOMALY":284.6011,"EPHEMERIS_TYPE":0,"CLASSIFICATION_TYPE":"U","NORAD_CAT_ID":54135,"ELEMENT_SET_NO":999,"REV_AT_EPOCH":16371,"BSTAR":-0.00046570127,"MEAN_MOTION_DOT":-1.74e-6,"MEAN_MOTION_DDOT":0},{"OBJECT_NAME":"SL-14 DEB","OBJECT_ID":"1991-056BM","EPOCH":"2026-03-09T10:16:53.929344","MEAN_MOTION":13.2084664,"ECCENTRICITY":0.00056306,"INCLINATION":82.5312,"RA_OF_ASC_NODE":198.2674,"ARG_OF_PERICENTER":238.6241,"MEAN_ANOMALY":121.4333,"EPHEMERIS_TYPE":0,"CLASSIFICATION_TYPE":"U","NORAD_CAT_ID":45323,"ELEMENT_SET_NO":999,"REV_AT_EPOCH":29022,"BSTAR":0.0014558607,"MEAN_MOTION_DOT":6.05e-6,"MEAN_MOTION_DDOT":0}]
